{"type": "FeatureCollection", "features": [ {"type": "Feature", "properties": {"norad_id": 35825, "name": "COSMOS 2251 DEB", "group": "cosmos-2251-debris", "lat": -64.56213355798097, "lon": 115.4008529864538, "alt_km": 802.5966571843774, "timestamp": "2025-12-06T22:38:43.125754+00:00", "meta": {"OBJECT_NAME": "COSMOS 2251 DEB", "OBJECT_ID": "1993-036ASX", "EPOCH": "2025-11-18T20:38:01.180896", "MEAN_MOTION": 13.70825357, "ECCENTRICITY": 0.03535711, "INCLINATION": 74.1138, "RA_OF_ASC_NODE": 181.8907, "ARG_OF_PERICENTER": 283.1782, "MEAN_ANOMALY": 73.0118, "EPHEMERIS_TYPE": 0, "CLASSIFICATION_TYPE": "U", "NORAD_CAT_ID": 35825, "ELEMENT_SET_NO": 999, "REV_AT_EPOCH": 82181, "BSTAR": 0.0013809564, "MEAN_MOTION_DOT": 1.891e-05, "MEAN_MOTION_DDOT": 0}, "tle": {"line1": "1 35825U 93036ASX 25322.85973589  .00001891  00000+0  13810-2 0  9995", "line2": "2 35825  74.1138 181.8907 0353571 283.1782  73.0118 13.70825357821819"}}, "geometry": {"type": "Point", "coordinates": [115.4008529864538, -64.56213355798097]}}, {"type": "Feature", "properties": {"norad_id": 35829, "name": "COSMOS 2251 DEB", "group": "cosmos-2251-debris", "lat": 40.54707725634949, "lon": -84.02257241116097, "alt_km": 634.1911721069464, "timestamp": "2025-12-06T22:38:43.125764+00:00", "meta": {"OBJECT_NAME": "COSMOS 2251 DEB", "OBJECT_ID": "1993-036ATB", "EPOCH": "2025-12-06T15:31:06.088800", "MEAN_MOTION": 14.76021292, "ECCENTRICITY": 0.0006956, "INCLINATION": 74.0253, "RA_OF_ASC_NODE": 110.7446, "ARG_OF_PERICENTER": 170.0362, "MEAN_ANOMALY": 190.0952, "EPHEMERIS_TYPE": 0, "CLASSIFICATION_TYPE": "U", "NORAD_CAT_ID": 35829, "ELEMENT_SET_NO": 999, "REV_AT_EPOCH": 87685, "BSTAR": 0.0039600856, "MEAN_MOTION_DOT": 0.00027375, "MEAN_MOTION_DDOT": 0}, "tle": {"line1": "1 35829U 93036ATB 25340.64659825  .00027375  00000+0  39601-2 0  9991", "line2": "2 35829  74.0253 110.7446 0006956 170.0362 190.0952 14.76021292876852"}}, "geometry": {"type": "Point", "coordinates": [-84.02257241116097, 40.54707725634949]}}, {"type": "Feature", "properties": {"norad_id": 35830, "name": "COSMOS 2251 DEB", "group": "cosmos-2251-debris", "lat": 73.6680639849199, "lon": -1.8751776576960812, "alt_km": 886.6723254278095, "timestamp": "2025-12-06T22:38:43.125775+00:00", "meta": {"OBJECT_NAME": "COSMOS 2251 DEB", "OBJECT_ID": "1993-036ATC", "EPOCH": "2025-12-06T12:06:38.215008", "MEAN_MOTION": 14.23927917, "ECCENTRICITY": 0.01224789, "INCLINATION": 73.8624, "RA_OF_ASC_NODE": 277.7805, "ARG_OF_PERICENTER": 247.2482, "MEAN_ANOMALY": 111.5683, "EPHEMERIS_TYPE": 0, "CLASSIFICATION_TYPE": "U", "NORAD_CAT_ID": 35830, "ELEMENT_SET_NO": 999, "REV_AT_EPOCH": 61175, "BSTAR": 0.0019622096, "MEAN_MOTION_DOT": 4.837e-05, "MEAN_MOTION_DDOT": 0}, "tle": {"line1": "1 35830U 93036ATC 25340.50460897  .00004837  00000+0  19622-2 0  9996", "line2": "2 35830  73.8624 277.7805 0122478 247.2482 111.5683 14.23927917611750"}}, "geometry": {"type": "Point", "coordinates": [-1.8751776576960812, 73.6680639849199]}}, {"type": "Feature", "properties": {"norad_id": 35834, "name": "COSMOS 2251 DEB", "group": "cosmos-2251-debris", "lat": 22.555378909711198, "lon": 127.97969863665779, "alt_km": 787.6480105544742, "timestamp": "2025-12-06T22:38:43.125785+00:00", "meta": {"OBJECT_NAME": "COSMOS 2251 DEB", "OBJECT_ID": "1993-036ATG", "EPOCH": "2025-12-06T09:01:45.147936", "MEAN_MOTION": 14.12970269, "ECCENTRICITY": 0.0109142, "INCLINATION": 73.9305, "RA_OF_ASC_NODE": 315.8649, "ARG_OF_PERICENTER": 117.5513, "MEAN_ANOMALY": 33.2759, "EPHEMERIS_TYPE": 0, "CLASSIFICATION_TYPE": "U", "NORAD_CAT_ID": 35834, "ELEMENT_SET_NO": 999, "REV_AT_EPOCH": 66173, "BSTAR": 0.0003240032, "MEAN_MOTION_DOT": 6.14e-06, "MEAN_MOTION_DDOT": 0}, "tle": {"line1": "1 35834U 93036ATG 25340.37621699  .00000614  00000+0  32400-3 0  9993", "line2": "2 35834  73.9305 315.8649 0109142 117.5513  33.2759 14.12970269661731"}}, "geometry": {"type": "Point", "coordinates": [127.97969863665779, 22.555378909711198]}}, {"type": "Feature", "properties": {"norad_id": 35835, "name": "COSMOS 2251 DEB", "group": "cosmos-2251-debris", "lat": -3.5734577850410782, "lon": -82.84094282092309, "alt_km": 861.2406538610867, "timestamp": "2025-12-06T22:38:43.125795+00:00", "meta": {"OBJECT_NAME": "COSMOS 2251 DEB", "OBJECT_ID": "1993-036ATH", "EPOCH": "2025-12-04T13:22:03.090144", "MEAN_MOTION": 13.82821616, "ECCENTRICITY": 0.0289764, "INCLINATION": 74.0638, "RA_OF_ASC_NODE": 282.192, "ARG_OF_PERICENTER": 65.7075, "MEAN_ANOMALY": 297.4021, "EPHEMERIS_TYPE": 0, "CLASSIFICATION_TYPE": "U", "NORAD_CAT_ID": 35835, "ELEMENT_SET_NO": 999, "REV_AT_EPOCH": 61586, "BSTAR": 0.0025294, "MEAN_MOTION_DOT": 3.783e-05, "MEAN_MOTION_DDOT": 0}, "tle": {"line1": "1 35835U 93036ATH 25338.55698021  .00003783  00000+0  25294-2 0  9996", "line2": "2 35835  74.0638 282.1920 0289764  65.7075 297.4021 13.82821616615863"}}, "geometry": {"type": "Point", "coordinates": [-82.84094282092309, -3.5734577850410782]}}, {"type": "Feature", "properties": {"norad_id": 35836, "name": "COSMOS 2251 DEB", "group": "cosmos-2251-debris", "lat": -2.357839212018356, "lon": 4.866445089958874, "alt_km": 653.0591610320871, "timestamp": "2025-12-06T22:38:43.125805+00:00", "meta": {"OBJECT_NAME": "COSMOS 2251 DEB", "OBJECT_ID": "1993-036ATJ", "EPOCH": "2025-12-06T13:39:15.783552", "MEAN_MOTION": 14.70769122, "ECCENTRICITY": 0.00248073, "INCLINATION": 74.0314, "RA_OF_ASC_NODE": 184.918, "ARG_OF_PERICENTER": 244.2661, "MEAN_ANOMALY": 115.595, "EPHEMERIS_TYPE": 0, "CLASSIFICATION_TYPE": "U", "NORAD_CAT_ID": 35836, "ELEMENT_SET_NO": 999, "REV_AT_EPOCH": 63429, "BSTAR": 0.0028915856, "MEAN_MOTION_DOT": 0.00017747, "MEAN_MOTION_DDOT": 0}, "tle": {"line1": "1 35836U 93036ATJ 25340.56893268  .00017747  00000+0  28916-2 0  9990", "line2": "2 35836  74.0314 184.9180 0024807 244.2661 115.5950 14.70769122634292"}}, "geometry": {"type": "Point", "coordinates": [4.866445089958874, -2.357839212018356]}}, {"type": "Feature", "properties": {"norad_id": 35837, "name": "COSMOS 2251 DEB", "group": "cosmos-2251-debris", "lat": -10.061621285325426, "lon": 40.240343360329895, "alt_km": 824.210697791139, "timestamp": "2025-12-06T22:38:43.125815+00:00", "meta": {"OBJECT_NAME": "COSMOS 2251 DEB", "OBJECT_ID": "1993-036ATK", "EPOCH": "2025-12-06T00:57:00.155232", "MEAN_MOTION": 13.63407425, "ECCENTRICITY": 0.04220745, "INCLINATION": 73.7215, "RA_OF_ASC_NODE": 218.7719, "ARG_OF_PERICENTER": 140.6182, "MEAN_ANOMALY": 290.7471, "EPHEMERIS_TYPE": 0, "CLASSIFICATION_TYPE": "U", "NORAD_CAT_ID": 35837, "ELEMENT_SET_NO": 999, "REV_AT_EPOCH": 57885, "BSTAR": 0.0028460972, "MEAN_MOTION_DOT": 4.083e-05, "MEAN_MOTION_DDOT": 0}, "tle": {"line1": "1 35837U 93036ATK 25340.03958513  .00004083  00000+0  28461-2 0  9992", "line2": "2 35837  73.7215 218.7719 0422074 140.6182 290.7471 13.63407425578857"}}, "geometry": {"type": "Point", "coordinates": [40.240343360329895, -10.061621285325426]}}, {"type": "Feature", "properties": {"norad_id": 35839, "name": "COSMOS 2251 DEB", "group": "cosmos-2251-debris", "lat": -73.44359614275962, "lon": -95.99814926921368, "alt_km": 430.6860662429308, "timestamp": "2025-12-06T22:38:43.125826+00:00", "meta": {"OBJECT_NAME": "COSMOS 2251 DEB", "OBJECT_ID": "1993-036ATM", "EPOCH": "2025-12-04T16:40:31.810368", "MEAN_MOTION": 15.46007318, "ECCENTRICITY": 0.00035851, "INCLINATION": 74.2143, "RA_OF_ASC_NODE": 340.9603, "ARG_OF_PERICENTER": 348.8276, "MEAN_ANOMALY": 11.2856, "EPHEMERIS_TYPE": 0, "CLASSIFICATION_TYPE": "U", "NORAD_CAT_ID": 35839, "ELEMENT_SET_NO": 999, "REV_AT_EPOCH": 88443, "BSTAR": 0.0054614209, "MEAN_MOTION_DOT": 0.00276351, "MEAN_MOTION_DDOT": 0}, "tle": {"line1": "1 35839U 93036ATM 25338.69481262  .00276351  00000+0  54614-2 0  9993", "line2": "2 35839  74.2143 340.9603 0003585 348.8276  11.2856 15.46007318884430"}}, "geometry": {"type": "Point", "coordinates": [-95.99814926921368, -73.44359614275962]}}, {"type": "Feature", "properties": {"norad_id": 35840, "name": "COSMOS 2251 DEB", "group": "cosmos-2251-debris", "lat": -57.02161771777829, "lon": 15.296539377440943, "alt_km": 853.7696861580189, "timestamp": "2025-12-06T22:38:43.125836+00:00", "meta": {"OBJECT_NAME": "COSMOS 2251 DEB", "OBJECT_ID": "1993-036ATN", "EPOCH": "2025-12-06T06:30:23.923008", "MEAN_MOTION": 14.37729303, "ECCENTRICITY": 0.01161221, "INCLINATION": 73.9295, "RA_OF_ASC_NODE": 170.1667, "ARG_OF_PERICENTER": 74.235, "MEAN_ANOMALY": 287.1572, "EPHEMERIS_TYPE": 0, "CLASSIFICATION_TYPE": "U", "NORAD_CAT_ID": 35840, "ELEMENT_SET_NO": 999, "REV_AT_EPOCH": 85198, "BSTAR": 0.0028240718, "MEAN_MOTION_DOT": 9.169e-05, "MEAN_MOTION_DDOT": 0}, "tle": {"line1": "1 35840U 93036ATN 25340.27111022  .00009169  00000+0  28241-2 0  9994", "line2": "2 35840  73.9295 170.1667 0116122  74.2350 287.1572 14.37729303851981"}}, "geometry": {"type": "Point", "coordinates": [15.296539377440943, -57.02161771777829]}}, {"type": "Feature", "properties": {"norad_id": 35883, "name": "COSMOS 2251 DEB", "group": "cosmos-2251-debris", "lat": -24.918661771521506, "lon": 73.28707384772187, "alt_km": 761.1050692627296, "timestamp": "2025-12-06T22:38:43.125846+00:00", "meta": {"OBJECT_NAME": "COSMOS 2251 DEB", "OBJECT_ID": "1993-036ATW", "EPOCH": "2025-11-29T02:53:29.744160", "MEAN_MOTION": 14.50541303, "ECCENTRICITY": 0.00841977, "INCLINATION": 74.0237, "RA_OF_ASC_NODE": 95.6459, "ARG_OF_PERICENTER": 227.8885, "MEAN_ANOMALY": 309.997, "EPHEMERIS_TYPE": 0, "CLASSIFICATION_TYPE": "U", "NORAD_CAT_ID": 35883, "ELEMENT_SET_NO": 999, "REV_AT_EPOCH": 62188, "BSTAR": 0.00041574036, "MEAN_MOTION_DOT": 1.674e-05, "MEAN_MOTION_DDOT": 0}, "tle": {"line1": "1 35883U 93036ATW 25333.12048315  .00001674  00000+0  41574-3 0  9999", "line2": "2 35883  74.0237  95.6459 0084197 227.8885 309.9970 14.50541303621887"}}, "geometry": {"type": "Point", "coordinates": [73.28707384772187, -24.918661771521506]}}]}